CCSDS_OEM_VERS = 2.0
CREATION_DATE = 2026-06-27T00:00:00.000000
ORIGINATOR = KSHANA

META_START
OBJECT_NAME = KSHANA-COV-LEO-1
OBJECT_ID = KSHANA-COV-LEO-1
CENTER_NAME = EARTH
REF_FRAME = EME2000
TIME_SYSTEM = UTC
START_TIME = 2024-01-01T00:00:00.000000
STOP_TIME = 2024-01-01T00:25:00.000000
META_STOP

2024-01-01T00:00:00.000000 4701.664852 3981.898815 3042.798529 -5.267521841 2.461418785 4.924877664
2024-01-01T00:05:00.000000 2892.878652 4488.732441 4326.558916 -6.679650976 0.886431626 3.554669819
2024-01-01T00:10:00.000000 767.344019 4504.124377 5136.642694 -7.359815378 -0.784548624 1.796312988
2024-01-01T00:15:00.000000 -1442.173333 4026.758518 5384.782969 -7.234597288 -2.368320669 -0.156982279
2024-01-01T00:20:00.000000 -3494.099285 3109.254520 5044.364500 -6.319140366 -3.691849707 -2.091264154
2024-01-01T00:25:00.000000 -5164.524670 1852.219384 4153.121283 -4.714871124 -4.611175471 -3.795450998

COVARIANCE_START
EPOCH = 2024-01-01T00:00:00.000000
COV_REF_FRAME = RTN
1.440000000000000e-4
3.600000000000000e-5 2.340000000000000e-4
-2.400000000000000e-5 5.400000000000000e-5 3.440000000000000e-4
1.200000000000000e-7 -1.500000000000000e-8 3.999999999999996e-9 1.490000000000000e-10
-2.400000000000000e-8 6.900000000000001e-8 4.200000000000000e-8 -2.400000000000001e-11 5.725000000000001e-11
3.600000000000000e-8 2.400000000000000e-8 -7.400000000000000e-8 2.380000000000000e-11 2.200000000000000e-12 4.408000000000000e-11
COVARIANCE_STOP
